STARLINK-37775          
1 69348U 26122V   26165.83339119  .00153675  00000+0  79418-3 0  9998
2 69348  97.2837 195.2006 0001932 125.8344  82.6636 15.80670940  2972
STARLINK-37777          
1 69349U 26122W   26165.83339119  .00069458  00000+0  36346-3 0  9997
2 69349  97.2833 195.2010 0001767 109.8542  99.5336 15.80634181  2973
STARLINK-37779          
1 69350U 26122X   26165.83339119  .00033934  00000+0  17748-3 0  9994
2 69350  97.2834 195.2030 0000791 101.4063 114.8009 15.80783371  2974
STARLINK-37549          
1 69351U 26122Y   26165.83339119  .00200456  00000+0  10267-2 0  9998
2 69351  97.2836 195.1953 0001925  86.7969 113.6567 15.80744659  2972
STARLINK-37778          
1 69352U 26122Z   26165.83339119  .00005858  00000+0  31313-4 0  9995
2 69352  97.2837 195.2061 0001444  91.3377 132.1780 15.80807876  2970
STARLINK-37651          
1 69353U 26123A   26165.83339119 -.00042462  00000+0 -21249-3 0  9997
2 69353  53.1585 253.6043 0001226  79.4276 282.9359 15.80888957  2777
STARLINK-37652          
1 69354U 26123B   26165.83339119 -.00033459  00000+0 -16648-3 0  9991
2 69354  53.1587 253.6181 0000920  80.5616 275.3018 15.80893126  2776
STARLINK-37593          
1 69355U 26123C   26165.83339119 -.00082645  00000+0 -41849-3 0  9994
2 69355  53.1584 253.6072 0000955  94.6500 266.1756 15.80908948  2821
STARLINK-37597          
1 69356U 26123D   26165.83339119 -.00039465  00000+0 -19710-3 0  9999
2 69356  53.1584 253.5880 0001046  81.5306 288.5605 15.80897114  2822
STARLINK-37598          
1 69357U 26123E   26165.83339119 -.00065711  00000+0 -33154-3 0  9991
2 69357  53.1587 253.5631 0000925  84.5788 297.4676 15.80897384  2828
STARLINK-37602          
1 69358U 26123F   26165.83339119 -.01930303  00000+0 -11581-1 0  9999
2 69358  53.1588 253.5537 0000658  89.4624 297.2728 15.80215356  2820
STARLINK-37600          
1 69359U 26123G   26165.83339119 -.01376646  00000+0 -76802-2 0  9992
2 69359  53.1589 253.5191 0001153  61.7256 341.9760 15.81255757  2826
STARLINK-37599          
1 69360U 26123H   26165.83339119  .00033472  00000+0  17266-3 0  9998
2 69360  53.1582 253.4414 0001198  73.9675   7.1490 15.80848468  2778
STARLINK-37039          
1 69361U 26123J   26165.83339119 -.00041379  00000+0 -20698-3 0  9999
2 69361  53.1619 253.4984 0001213  64.9667 348.1018 15.80885914  2772
STARLINK-37040          
1 69362U 26123K   26165.83339119 -.01972645  00000+0 -92270-2 0  9994
2 69362  53.1567 253.2894 0000912  79.7213  74.6298 15.85501081  2775
STARLINK-37582          
1 69363U 26123L   26165.83339119 -.00046173  00000+0 -23155-3 0  9999
2 69363  53.1585 253.4424 0000882  41.5693  38.8063 15.80882489  2773
STARLINK-37309          
1 69364U 26123M   26165.83339119 -.01947192  00000+0 -78754-2 0  9996
2 69364  53.1561 253.1989 0000947  69.3995 128.7239 15.88380222  2912
STARLINK-37436          
1 69365U 26123N   26165.83339119 -.01969900  00000+0 -78903-2 0  9994
2 69365  53.1564 253.1638 0001011  63.3760 151.5266 15.88605351  2911
STARLINK-37581          
1 69366U 26123P   26165.83339119 -.02181039  00000+0 -97207-2 0  9993
2 69366  53.1564 253.1866 0001197  74.8687 129.1152 15.86813415  2763
STARLINK-37683          
1 69367U 26123Q   26165.83339119 -.01990815  00000+0 -82329-2 0  9992
2 69367  53.1564 253.1524 0000897  68.0270 152.3655 15.88007243  2777
STARLINK-37687          
1 69368U 26123R   26165.83339119 -.02156171  00000+0 -88111-2 0  9998
2 69368  53.1564 253.1079 0000932  64.9724 176.7431 15.88501501  2770
STARLINK-37631          
1 69369U 26123S   26165.83339119 -.02167291  00000+0 -93403-2 0  9994
2 69369  53.1562 253.1055 0000910  66.5403 176.4870 15.87466257  2828
STARLINK-37673          
1 69370U 26123T   26165.83339119 -.02129394  00000+0 -94311-2 0  9997
2 69370  53.1562 253.0946 0000786  79.6323 168.5339 15.86860193  2823
STARLINK-37645          
1 69371U 26123U   26165.83339119 -.02094677  00000+0 -97366-2 0  9996
2 69371  53.1567 253.1080 0000781  63.6344 177.9841 15.85828375  2827
STARLINK-37688          
1 69372U 26123V   26165.83339119 -.02189669  00000+0 -10604-1 0  9992
2 69372  53.1566 253.0710 0000821  59.3272 199.7860 15.85153003  2825
STARLINK-37685          
1 69373U 26123W   26165.83339119 -.02194430  00000+0 -10719-1 0  9992
2 69373  53.1566 253.0639 0000929  67.2698 195.2611 15.84983987  2821
STARLINK-37632          
1 69374U 26123X   26165.83339119 -.02159671  00000+0 -10431-1 0  9992
2 69374  53.1563 253.0564 0000611  62.4365 203.6941 15.85158756  2775
STARLINK-37454          
1 69375U 26123Y   26165.83339119 -.02160631  00000+0 -10514-1 0  9993
2 69375  53.1563 253.0421 0000795  59.1001 213.7542 15.85005436  2912
STARLINK-37485          
1 69376U 26123Z   26165.83339119 -.02181877  00000+0 -10634-1 0  9992
2 69376  53.1563 253.0332 0000731  60.9785 216.1231 15.85010757  2917
STARLINK-37439          
1 69377U 26123AA  26165.83339119 -.02201258  00000+0 -98683-2 0  9990
2 69377  53.1552 252.9620 0000700  59.2462 251.9829 15.86737014  2770
