OBJECT_NAME,OBJECT_ID,EPOCH,MEAN_MOTION,ECCENTRICITY,INCLINATION,RA_OF_ASC_NODE,ARG_OF_PERICENTER,MEAN_ANOMALY,EPHEMERIS_TYPE,CLASSIFICATION_TYPE,NORAD_CAT_ID,ELEMENT_SET_NO,REV_AT_EPOCH,BSTAR,MEAN_MOTION_DOT,MEAN_MOTION_DDOT
STARLINK-37775,2026-122V,2026-06-14T20:00:04.998816,15.80670940,.0001932,97.2837,195.2006,125.8344,82.6636,0,U,69348,999,297,.79418E-3,.153675E-2,0
STARLINK-37777,2026-122W,2026-06-14T20:00:04.998816,15.80634181,.0001767,97.2833,195.2010,109.8542,99.5336,0,U,69349,999,297,.36346E-3,.69458E-3,0
STARLINK-37779,2026-122X,2026-06-14T20:00:04.998816,15.80783371,.0000791,97.2834,195.2030,101.4063,114.8009,0,U,69350,999,297,.17748E-3,.33934E-3,0
STARLINK-37549,2026-122Y,2026-06-14T20:00:04.998816,15.80744659,.0001925,97.2836,195.1953,86.7969,113.6567,0,U,69351,999,297,.10267E-2,.200456E-2,0
STARLINK-37778,2026-122Z,2026-06-14T20:00:04.998816,15.80807876,.0001444,97.2837,195.2061,91.3377,132.1780,0,U,69352,999,297,.31313E-4,.5858E-4,0
STARLINK-37651,2026-123A,2026-06-14T20:00:04.998816,15.80888957,.0001226,53.1585,253.6043,79.4276,282.9359,0,U,69353,999,277,-.21249E-3,-.42462E-3,0
STARLINK-37652,2026-123B,2026-06-14T20:00:04.998816,15.80893126,.000092,53.1587,253.6181,80.5616,275.3018,0,U,69354,999,277,-.16648E-3,-.33459E-3,0
STARLINK-37593,2026-123C,2026-06-14T20:00:04.998816,15.80908948,.0000955,53.1584,253.6072,94.6500,266.1756,0,U,69355,999,282,-.41849E-3,-.82645E-3,0
STARLINK-37597,2026-123D,2026-06-14T20:00:04.998816,15.80897114,.0001046,53.1584,253.5880,81.5306,288.5605,0,U,69356,999,282,-.1971E-3,-.39465E-3,0
STARLINK-37598,2026-123E,2026-06-14T20:00:04.998816,15.80897384,.0000925,53.1587,253.5631,84.5788,297.4676,0,U,69357,999,282,-.33154E-3,-.65711E-3,0
STARLINK-37602,2026-123F,2026-06-14T20:00:04.998816,15.80215356,.0000658,53.1588,253.5537,89.4624,297.2728,0,U,69358,999,282,-.11581E-1,-.1930303E-1,0
STARLINK-37600,2026-123G,2026-06-14T20:00:04.998816,15.81255757,.0001153,53.1589,253.5191,61.7256,341.9760,0,U,69359,999,282,-.76802E-2,-.1376646E-1,0
STARLINK-37599,2026-123H,2026-06-14T20:00:04.998816,15.80848468,.0001198,53.1582,253.4414,73.9675,7.1490,0,U,69360,999,277,.17266E-3,.33472E-3,0
STARLINK-37039,2026-123J,2026-06-14T20:00:04.998816,15.80885914,.0001213,53.1619,253.4984,64.9667,348.1018,0,U,69361,999,277,-.20698E-3,-.41379E-3,0
STARLINK-37040,2026-123K,2026-06-14T20:00:04.998816,15.85501081,.0000912,53.1567,253.2894,79.7213,74.6298,0,U,69362,999,277,-.9227E-2,-.1972645E-1,0
STARLINK-37582,2026-123L,2026-06-14T20:00:04.998816,15.80882489,.0000882,53.1585,253.4424,41.5693,38.8063,0,U,69363,999,277,-.23155E-3,-.46173E-3,0
STARLINK-37309,2026-123M,2026-06-14T20:00:04.998816,15.88380222,.0000947,53.1561,253.1989,69.3995,128.7239,0,U,69364,999,291,-.78754E-2,-.1947192E-1,0
STARLINK-37436,2026-123N,2026-06-14T20:00:04.998816,15.88605351,.0001011,53.1564,253.1638,63.3760,151.5266,0,U,69365,999,291,-.78903E-2,-.19699E-1,0
STARLINK-37581,2026-123P,2026-06-14T20:00:04.998816,15.86813415,.0001197,53.1564,253.1866,74.8687,129.1152,0,U,69366,999,276,-.97207E-2,-.2181039E-1,0
STARLINK-37683,2026-123Q,2026-06-14T20:00:04.998816,15.88007243,.0000897,53.1564,253.1524,68.0270,152.3655,0,U,69367,999,277,-.82329E-2,-.1990815E-1,0
STARLINK-37687,2026-123R,2026-06-14T20:00:04.998816,15.88501501,.0000932,53.1564,253.1079,64.9724,176.7431,0,U,69368,999,277,-.88111E-2,-.2156171E-1,0
STARLINK-37631,2026-123S,2026-06-14T20:00:04.998816,15.87466257,.000091,53.1562,253.1055,66.5403,176.4870,0,U,69369,999,282,-.93403E-2,-.2167291E-1,0
STARLINK-37673,2026-123T,2026-06-14T20:00:04.998816,15.86860193,.0000786,53.1562,253.0946,79.6323,168.5339,0,U,69370,999,282,-.94311E-2,-.2129394E-1,0
STARLINK-37645,2026-123U,2026-06-14T20:00:04.998816,15.85828375,.0000781,53.1567,253.1080,63.6344,177.9841,0,U,69371,999,282,-.97366E-2,-.2094677E-1,0
STARLINK-37688,2026-123V,2026-06-14T20:00:04.998816,15.85153003,.0000821,53.1566,253.0710,59.3272,199.7860,0,U,69372,999,282,-.10604E-1,-.2189669E-1,0
STARLINK-37685,2026-123W,2026-06-14T20:00:04.998816,15.84983987,.0000929,53.1566,253.0639,67.2698,195.2611,0,U,69373,999,282,-.10719E-1,-.219443E-1,0
STARLINK-37632,2026-123X,2026-06-14T20:00:04.998816,15.85158756,.0000611,53.1563,253.0564,62.4365,203.6941,0,U,69374,999,277,-.10431E-1,-.2159671E-1,0
STARLINK-37454,2026-123Y,2026-06-14T20:00:04.998816,15.85005436,.0000795,53.1563,253.0421,59.1001,213.7542,0,U,69375,999,291,-.10514E-1,-.2160631E-1,0
STARLINK-37485,2026-123Z,2026-06-14T20:00:04.998816,15.85010757,.0000731,53.1563,253.0332,60.9785,216.1231,0,U,69376,999,291,-.10634E-1,-.2181877E-1,0
STARLINK-37439,2026-123AA,2026-06-14T20:00:04.998816,15.86737014,.00007,53.1552,252.9620,59.2462,251.9829,0,U,69377,999,277,-.98683E-2,-.2201258E-1,0
